NORAD_CAT_ID,OBJECT_NAME,OBJECT_TYPE,EPOCH,MEAN_MOTION,ECCENTRICITY,INCLINATION,RA_OF_ASC_NODE,ARG_OF_PERICENTER,MEAN_ANOMALY,BSTAR,MEAN_MOTION_DOT,MEAN_MOTION_DDOT,TLE_LINE0,TLE_LINE1,TLE_LINE2,SEMIMAJOR_AXIS,PERIOD,APOGEE,PERIGEE,DECAYED
49159.0,STARLINK-3056,PAYLOAD,2021-10-09 06:00:00,15.6974715,0.0003619,69.9999,56.2065,279.519,220.3701,2.6675e-06,1.06e-06,0.0,0 STARLINK-3056,1 49159U 21082AF  21282.25001157  .00000106  00000-0  26675-5 0  9995,2 49159  69.9999  56.2065 0003619 279.5190 220.3701 15.69747150  5147,6737.757,91.735,362.061,357.184,0.0
49159.0,STARLINK-3056,PAYLOAD,2021-10-09 14:00:01,15.70000995,0.0003774,70.0006,55.2741,278.5568,304.6740000000001,-0.0058358,-0.0065218,0.0,0 STARLINK-3056,1 49159U 21082AF  21282.58335648 -.00652180  00000-0 -58358-2 0  9993,2 49159  70.0006  55.2741 0003774 278.5568 304.6740 15.70000995  5194,6737.031,91.72,361.439,356.35400000000016,0.0
49159.0,STARLINK-3056,PAYLOAD,2021-10-09 22:00:00,15.69808683,0.000381,70.0009,54.3414,284.5125,21.8403,-0.00084972,-0.00100699,0.0,0 STARLINK-3056,1 49159U 21082AF  21282.91667824 -.00100699  00000-0 -84972-3 0  9999,2 49159  70.0009  54.3414 0003810 284.5125  21.8403 15.69808683  5250,6737.581,91.731,362.013,356.879,0.0
49159.0,STARLINK-3056,PAYLOAD,2021-10-10 14:00:01,15.69774471,0.0003628,70.0016,52.4677,282.857,189.765,-0.00028003,-0.00033544,0.0,0 STARLINK-3056,1 49159U 21082AF  21283.58334491 -.00033544  00000-0 -28003-3 0  9991,2 49159  70.0016  52.4677 0003628 282.8570 189.7650 15.69774471  5356,6737.679,91.733,361.989,357.1,0.0
49159.0,STARLINK-3056,PAYLOAD,2021-10-10 22:00:01,15.697613699999998,0.0003519,70.0011,51.5306,286.1385,269.6939,-0.00067647,-0.00080242,0.0,0 STARLINK-3056,1 49159U 21082AF  21283.91668981 -.00080242  00000-0 -67647-3 0  9996,2 49159  70.0011  51.5306 0003519 286.1385 269.6939 15.69761370  3710,6737.717,91.734,361.953,357.211,0.0
49159.0,STARLINK-3056,PAYLOAD,2021-10-11 14:00:01,15.69757353,0.0003492,70.001,49.6571,284.5348,77.4597,2.714e-05,3.03e-05,0.0,0 STARLINK-3056,1 49159U 21082AF  21284.58334491  .00003030  00000-0  27140-4 0  9999,2 49159  70.0010  49.6571 0003492 284.5348  77.4597 15.69757353  5513,6737.728,91.734,361.946,357.24,0.0
49159.0,STARLINK-3056,PAYLOAD,2021-10-11 22:00:00,15.69806575,0.0003594,70.0006,48.7199,287.6898,157.4248,-0.00068264,-0.00081117,0.0,0 STARLINK-3056,1 49159U 21082AF  21284.91667824 -.00081117  00000-0 -68264-3 0  9990,2 49159  70.0006  48.7199 0003594 287.6898 157.4248 15.69806575  3691,6737.587,91.731,361.874,357.031,0.0
49159.0,STARLINK-3056,PAYLOAD,2021-10-12 14:00:01,15.69755634,0.0003745,70.0011,46.8459,284.682,326.7157,6.9804e-05,8.131e-05,0.0,0 STARLINK-3056,1 49159U 21082AF  21285.58334491  .00008131  00000-0  69804-4 0  9990,2 49159  70.0011  46.8459 0003745 284.6820 326.7157 15.69755634  3683,6737.733,91.734,362.121,357.075,0.0
49159.0,STARLINK-3056,PAYLOAD,2021-10-12 20:00:01,15.69794305,0.0003699,70.0008,46.1429,287.7381,296.0256,-0.00051414,-0.00061261,0.0,0 STARLINK-3056,1 49159U 21082AF  21285.83334491 -.00061261  00000-0 -51414-3 0  9990,2 49159  70.0008  46.1429 0003699 287.7381 296.0256 15.69794305  5705,6737.623000000001,91.732,361.98,356.995,0.0
49159.0,STARLINK-3056,PAYLOAD,2021-10-12 22:00:01,15.69796168,0.000362,70.0007,45.9087,287.4727,47.1463,-0.0007262,-0.00086191,0.0,0 STARLINK-3056,1 49159U 21082AF  21285.91668981 -.00086191  00000-0 -72620-3 0  9994,2 49159  70.0007  45.9087 0003620 287.4727  47.1463 15.69796168  3674,6737.6169999999975,91.732,361.921,357.043,0.0
49159.0,STARLINK-3056,PAYLOAD,2021-10-13 06:00:00,15.69723183,0.0003451,70.0009,44.972,282.4692,135.2412,0.00089534,0.0010794,0.0,0 STARLINK-3056,1 49159U 21082AF  21286.25001157  .00107940  00000-0  89534-3 0  9994,2 49159  70.0009  44.9720 0003451 282.4692 135.2412 15.69723183  5770,6737.826,91.736,362.016,357.366,0.0
49159.0,STARLINK-3056,PAYLOAD,2021-10-13 14:00:01,15.69795022,0.0003645,70.0006,44.0351,286.4031,214.425,-0.00078256,-0.00092788,0.0,0 STARLINK-3056,1 49159U 21082AF  21286.58334491 -.00092788  00000-0 -78256-3 0  9994,2 49159  70.0006  44.0351 0003645 286.4031 214.4250 15.69795022  5821,6737.62,91.732,361.941,357.03,0.0
49159.0,STARLINK-3056,PAYLOAD,2021-10-13 22:00:01,15.69748232,0.0003714,70.0002,43.0978,287.7505,296.2776,-0.0011304,-0.00133046,0.0,0 STARLINK-3056,1 49159U 21082AF  21286.91668981 -.00133046  00000-0 -11304-2 0  9998,2 49159  70.0002  43.0978 0003714 287.7505 296.2776 15.69748232  3660,6737.754,91.734,362.122,357.117,0.0
49159.0,STARLINK-3056,PAYLOAD,2021-10-14 06:00:02,15.69205316,0.0003826,69.9997,42.1543,288.009,19.1359,0.0067908999999999,0.00866298,0.0,0 STARLINK-3056,1 49159U 21082AF  21287.25002315  .00866298  00000-0  67909-2 0  9991,2 49159  69.9997  42.1543 0003826 288.0090  19.1359 15.69205316  5937,6739.308000000001,91.766,363.752,358.595,0.0
49159.0,STARLINK-3056,PAYLOAD,2021-10-14 14:00:01,15.69725904,0.0003998,70.0009,41.2237,285.2751,104.9314,0.00012646,0.00014898,0.0,0 STARLINK-3056,1 49159U 21082AF  21287.58335648  .00014898  00000-0  12646-3 0  9995,2 49159  70.0009  41.2237 0003998 285.2751 104.9314 15.69725904  3681,6737.818,91.736,362.377,356.98900000000015,0.0
49159.0,STARLINK-3056,PAYLOAD,2021-10-14 16:00:00,15.697119,0.0004007,70.0009,40.9894,286.9989,213.9185,0.00040433,0.00048264,0.0,0 STARLINK-3056,1 49159U 21082AF  21287.66667824  .00048264  00000-0  40433-3 0  9997,2 49159  70.0009  40.9894 0004007 286.9989 213.9185 15.69711900  5993,6737.858,91.737,362.423,357.023,0.0
49159.0,STARLINK-3056,PAYLOAD,2021-10-14 22:00:00,15.69765458,0.0003951,70.0007,40.2867,286.9836,186.2506,-0.0003091,-0.00036979,0.0,0 STARLINK-3056,1 49159U 21082AF  21287.91667824 -.00036979  00000-0 -30910-3 0  9996,2 49159  70.0007  40.2867 0003951 286.9836 186.2506 15.69765458  3705,6737.705,91.733,362.232,356.908,0.0
49159.0,STARLINK-3056,PAYLOAD,2021-10-15 12:00:00,15.69791824,0.0003856,70.001,38.6472,285.5979,243.1342,-0.00087295,-0.00103344,0.0,0 STARLINK-3056,1 49159U 21082AF  21288.50001157 -.00103344  00000-0 -87295-3 0  9992,2 49159  70.0010  38.6472 0003856 285.5979 243.1342 15.69791824  6125,6737.63,91.732,362.093,356.897,0.0
49159.0,STARLINK-3056,PAYLOAD,2021-10-15 14:00:01,15.69741524,0.0003795,70.0008,38.413,287.6018,351.9314,-0.00020574,-0.00024695,0.0,0 STARLINK-3056,1 49159U 21082AF  21288.58334491 -.00024695  00000-0 -20574-3 0  9998,2 49159  70.0008  38.4130 0003795 287.6018 351.9314 15.69741524  3687,6737.774,91.735,362.196,357.082,0.0
49159.0,STARLINK-3056,PAYLOAD,2021-10-15 20:00:01,15.69733079,0.0003856,70.0005,37.7085,289.1906,322.6724,0.00010443,0.00012265,0.0,0 STARLINK-3056,1 49159U 21082AF  21288.83334491  .00012265  00000-0  10443-3 0  9998,2 49159  70.0005  37.7085 0003856 289.1906 322.6724 15.69733079  6180,6737.7980000000025,91.735,362.261,357.065,0.0
49159.0,STARLINK-3056,PAYLOAD,2021-10-15 22:00:00,15.69755309,0.0003802,70.0005,37.4759,288.3479,74.2876,-0.00025054,-0.00030024,0.0,0 STARLINK-3056,1 49159U 21082AF  21288.91667824 -.00030024  00000-0 -25054-3 0  9995,2 49159  70.0005  37.4759 0003802 288.3479  74.2876 15.69755309  3660,6737.734,91.734,362.161,357.037,0.0
49159.0,STARLINK-3056,PAYLOAD,2021-10-16 06:00:02,15.69717334,0.0003656,70.0008,36.5389,282.9348,162.8658,0.00050075,0.00059917,0.0,0 STARLINK-3056,1 49159U 21082AF  21289.25002315  .00059917  00000-0  50075-3 0  9992,2 49159  70.0008  36.5389 0003656 282.9348 162.8658 15.69717334  3684,6737.843000000003,91.736,362.171,357.244,0.0
49159.0,STARLINK-3056,PAYLOAD,2021-10-16 12:00:00,15.69793353,0.0003721,70.0012,35.8361,286.5256,131.5439,-0.00092265,-0.00109143,0.0,0 STARLINK-3056,1 49159U 21082AF  21289.50001157 -.00109143  00000-0 -92265-3 0  9999,2 49159  70.0012  35.8361 0003721 286.5256 131.5439 15.69793353  6286,6737.625,91.732,361.997,356.983,0.0
49159.0,STARLINK-3056,PAYLOAD,2021-10-16 16:00:00,15.69731232,0.0003638,70.0013,35.3675,290.5275,349.1262,-0.00024147,-0.00028919,0.0,0 STARLINK-3056,1 49159U 21082AF  21289.66667824 -.00028919  00000-0 -24147-3 0  9990,2 49159  70.0013  35.3675 0003638 290.5275 349.1262 15.69731232  3694,6737.803000000001,91.735,362.119,357.217,0.0
49159.0,STARLINK-3056,PAYLOAD,2021-10-16 20:00:01,15.69725325,0.0003546,70.001,34.899,291.3552,209.9114,-0.0002119,-0.00025407,0.0,0 STARLINK-3056,1 49159U 21082AF  21289.83335648 -.00025407  00000-0 -21190-3 0  9999,2 49159  70.0010  34.8990 0003546 291.3552 209.9114 15.69725325  6339,6737.82,91.736,362.074,357.296,0.0
49159.0,STARLINK-3056,PAYLOAD,2021-10-17 06:00:00,15.69704221,0.000342,70.0015,33.7283,285.2516,49.8078,0.00050508,0.00060405,0.0,0 STARLINK-3056,1 49159U 21082AF  21290.25001157  .00060405  00000-0  50508-3 0  9992,2 49159  70.0015  33.7283 0003420 285.2516  49.8078 15.69704221  3676,6737.88,91.737,362.05,357.441,0.0
49159.0,STARLINK-3056,PAYLOAD,2021-10-17 12:00:00,15.6974106,0.0003546999999999,70.0015,33.0257,288.3676,19.0089,-0.00015562,-0.00018742,0.0,0 STARLINK-3056,1 49159U 21082AF  21290.50001157 -.00018742  00000-0 -15562-3 0  9990,2 49159  70.0015  33.0257 0003547 288.3676  19.0089 15.69741060  6442,6737.775,91.735,362.03,357.25,0.0
49159.0,STARLINK-3056,PAYLOAD,2021-10-17 22:00:00,15.69765997,0.0003592,70.0011,31.8544,290.3466,210.9111,-0.00036299,-0.00043353,0.0,0 STARLINK-3056,1 49159U 21082AF  21290.91667824 -.00043353  00000-0 -36299-3 0  9990,2 49159  70.0011  31.8544 0003592 290.3466 210.9111 15.69765997  3667,6737.704000000002,91.733,361.989,357.148,0.0
49159.0,STARLINK-3056,PAYLOAD,2021-10-18 04:00:00,15.69726323,0.000354,70.0012,31.1518,285.2502,188.3771,0.0008041,0.00096803,0.0,0 STARLINK-3056,1 49159U 21082AF  21291.16667824  .00096803  00000-0  80410-3 0  9998,2 49159  70.0012  31.1518 0003540 285.2502 188.3771 15.69726323  6549,6737.816999999999,91.736,362.067,357.297,0.0
